[
    {
        "Altitude(m)": 562121.5479809146,
        "Argument of Periapsis(deg)": 0.006622991110713501,
        "Eccentricity": 0.0,
        "Inclination(deg)": 53.0,
        "Latitude(deg)": -29.05543854423568,
        "Longitude(deg)": 69.62159735519161,
        "Mean Anomaly(deg)": -37.18110713242235,
        "RAAN(deg)": 194.99014336852804,
        "Satellite Name": "Starlink Shell 1 877",
        "Satellite Number": 877,
        "Semi-Major Axis(m)": 6931778.249405717,
        "Time(s)": 190
    },
    {
        "Altitude(m)": 561946.9686376775,
        "Argument of Periapsis(deg)": 0.0069715695902247375,
        "Eccentricity": 0.0,
        "Inclination(deg)": 53.0,
        "Latitude(deg)": -28.5982009789459,
        "Longitude(deg)": 70.06940485331968,
        "Mean Anomaly(deg)": -36.55427592886558,
        "RAAN(deg)": 194.98962459845055,
        "Satellite Name": "Starlink Shell 1 877",
        "Satellite Number": 877,
        "Semi-Major Axis(m)": 6931778.249405717,
        "Time(s)": 200
    },
    {
        "Altitude(m)": 561772.7542884946,
        "Argument of Periapsis(deg)": 0.007320148069735974,
        "Eccentricity": 0.0,
        "Inclination(deg)": 53.0,
        "Latitude(deg)": -28.139170321699236,
        "Longitude(deg)": 70.51300705654,
        "Mean Anomaly(deg)": -35.92744472530893,
        "RAAN(deg)": 194.9891058283731,
        "Satellite Name": "Starlink Shell 1 877",
        "Satellite Number": 877,
        "Semi-Major Axis(m)": 6931778.249405717,
        "Time(s)": 210
    },
    {
        "Altitude(m)": 561598.9695546351,
        "Argument of Periapsis(deg)": 0.007668726549247212,
        "Eccentricity": 0.0,
        "Inclination(deg)": 53.0,
        "Latitude(deg)": -27.67839417578356,
        "Longitude(deg)": 70.95250347561529,
        "Mean Anomaly(deg)": -35.30061352175226,
        "RAAN(deg)": 194.9885870582956,
        "Satellite Name": "Starlink Shell 1 877",
        "Satellite Number": 877,
        "Semi-Major Axis(m)": 6931778.249405717,
        "Time(s)": 220
    },
    {
        "Altitude(m)": 561425.6787187933,
        "Argument of Periapsis(deg)": 0.00801730502875845,
        "Eccentricity": 0.0,
        "Inclination(deg)": 53.0,
        "Latitude(deg)": -27.2159191193047,
        "Longitude(deg)": 71.38799232112301,
        "Mean Anomaly(deg)": -34.673782318195485,
        "RAAN(deg)": 194.98806828821816,
        "Satellite Name": "Starlink Shell 1 877",
        "Satellite Number": 877,
        "Semi-Major Axis(m)": 6931778.249405717,
        "Time(s)": 230
    },
    {
        "Altitude(m)": 561252.9456962222,
        "Argument of Periapsis(deg)": 0.008365883508269684,
        "Eccentricity": 0.0,
        "Inclination(deg)": 53.0,
        "Latitude(deg)": -26.75179073457857,
        "Longitude(deg)": 71.81957100857467,
        "Mean Anomaly(deg)": -34.046951114638745,
        "RAAN(deg)": 194.98754951814064,
        "Satellite Name": "Starlink Shell 1 877",
        "Satellite Number": 877,
        "Semi-Major Axis(m)": 6931778.249405717,
        "Time(s)": 240
    },
    {
        "Altitude(m)": 561080.8340060996,
        "Argument of Periapsis(deg)": 0.008714461987780921,
        "Eccentricity": 0.0,
        "Inclination(deg)": 53.0,
        "Latitude(deg)": -26.286053637054962,
        "Longitude(deg)": 72.24733515334289,
        "Mean Anomaly(deg)": -33.4201199110821,
        "RAAN(deg)": 194.9870307480632,
        "Satellite Name": "Starlink Shell 1 877",
        "Satellite Number": 877,
        "Semi-Major Axis(m)": 6931778.249405717,
        "Time(s)": 250
    },
    {
        "Altitude(m)": 560909.4067430199,
        "Argument of Periapsis(deg)": 0.009063040467292158,
        "Eccentricity": 0.0,
        "Inclination(deg)": 53.0,
        "Latitude(deg)": -25.818751503756925,
        "Longitude(deg)": 72.67137908092016,
        "Mean Anomaly(deg)": -32.79328870752543,
        "RAAN(deg)": 194.9865119779857,
        "Satellite Name": "Starlink Shell 1 877",
        "Satellite Number": 877,
        "Semi-Major Axis(m)": 6931778.249405717,
        "Time(s)": 260
    },
    {
        "Altitude(m)": 560738.7265486831,
        "Argument of Periapsis(deg)": 0.009411618946803396,
        "Eccentricity": 0.0,
        "Inclination(deg)": 53.0,
        "Latitude(deg)": -25.34992710122532,
        "Longitude(deg)": 73.0917963394295,
        "Mean Anomaly(deg)": -32.16645750396865,
        "RAAN(deg)": 194.98599320790825,
        "Satellite Name": "Starlink Shell 1 877",
        "Satellite Number": 877,
        "Semi-Major Axis(m)": 6931778.249405717,
        "Time(s)": 270
    },
    {
        "Altitude(m)": 560568.8555838177,
        "Argument of Periapsis(deg)": 0.009760197426314633,
        "Eccentricity": 0.0,
        "Inclination(deg)": 53.0,
        "Latitude(deg)": -24.879622312959416,
        "Longitude(deg)": 73.50867870132268,
        "Mean Anomaly(deg)": -31.539626300411907,
        "RAAN(deg)": 194.9854744378308,
        "Satellite Name": "Starlink Shell 1 877",
        "Satellite Number": 877,
        "Semi-Major Axis(m)": 6931778.249405717,
        "Time(s)": 280
    },
    {
        "Altitude(m)": 560399.8555003116,
        "Argument of Periapsis(deg)": 0.01010877590582587,
        "Eccentricity": 0.0,
        "Inclination(deg)": 53.0,
        "Latitude(deg)": -24.407878166345107,
        "Longitude(deg)": 73.92211667982971,
        "Mean Anomaly(deg)": -30.912795096855238,
        "RAAN(deg)": 194.9849556677533,
        "Satellite Name": "Starlink Shell 1 877",
        "Satellite Number": 877,
        "Semi-Major Axis(m)": 6931778.249405717,
        "Time(s)": 290
    },
    {
        "Altitude(m)": 560231.7874135609,
        "Argument of Periapsis(deg)": 0.010457354385337106,
        "Eccentricity": 0.0,
        "Inclination(deg)": 53.0,
        "Latitude(deg)": -23.93473485906715,
        "Longitude(deg)": 74.33220004711927,
        "Mean Anomaly(deg)": -30.28596389329849,
        "RAAN(deg)": 194.98443689767583,
        "Satellite Name": "Starlink Shell 1 877",
        "Satellite Number": 877,
        "Semi-Major Axis(m)": 6931778.249405717,
        "Time(s)": 300
    },
    {
        "Altitude(m)": 560064.7118750894,
        "Argument of Periapsis(deg)": 0.010805932864848343,
        "Eccentricity": 0.0,
        "Inclination(deg)": 53.0,
        "Latitude(deg)": -23.46023178500447,
        "Longitude(deg)": 74.73901684114027,
        "Mean Anomaly(deg)": -29.659132689741746,
        "RAAN(deg)": 194.98391812759837,
        "Satellite Name": "Starlink Shell 1 877",
        "Satellite Number": 877,
        "Semi-Major Axis(m)": 6931778.249405717,
        "Time(s)": 310
    },
    {
        "Altitude(m)": 559898.688845427,
        "Argument of Periapsis(deg)": 0.01115451134435958,
        "Eccentricity": 0.0,
        "Inclination(deg)": 53.0,
        "Latitude(deg)": -22.984407559604584,
        "Longitude(deg)": 75.14265388674497,
        "Mean Anomaly(deg)": -29.032301486185048,
        "RAAN(deg)": 194.98339935752088,
        "Satellite Name": "Starlink Shell 1 877",
        "Satellite Number": 877,
        "Semi-Major Axis(m)": 6931778.249405717,
        "Time(s)": 320
    },
    {
        "Altitude(m)": 559733.7776672585,
        "Argument of Periapsis(deg)": 0.011503089823870818,
        "Eccentricity": 0.0,
        "Inclination(deg)": 53.0,
        "Latitude(deg)": -22.5073000447398,
        "Longitude(deg)": 75.54319731808414,
        "Mean Anomaly(deg)": -28.4054702826283,
        "RAAN(deg)": 194.9828805874434,
        "Satellite Name": "Starlink Shell 1 877",
        "Satellite Number": 877,
        "Semi-Major Axis(m)": 6931778.249405717,
        "Time(s)": 330
    },
    {
        "Altitude(m)": 559570.0370388537,
        "Argument of Periapsis(deg)": 0.011851668303382053,
        "Eccentricity": 0.0,
        "Inclination(deg)": 53.0,
        "Latitude(deg)": -22.02894637304878,
        "Longitude(deg)": 75.94073158927752,
        "Mean Anomaly(deg)": -27.778639079071556,
        "RAAN(deg)": 194.98236181736593,
        "Satellite Name": "Starlink Shell 1 877",
        "Satellite Number": 877,
        "Semi-Major Axis(m)": 6931778.249405717,
        "Time(s)": 340
    },
    {
        "Altitude(m)": 559407.5249878367,
        "Argument of Periapsis(deg)": 0.012200246782893292,
        "Eccentricity": 0.0,
        "Inclination(deg)": 53.0,
        "Latitude(deg)": -21.549382971764462,
        "Longitude(deg)": 76.3353399989873,
        "Mean Anomaly(deg)": -27.151807875514884,
        "RAAN(deg)": 194.98184304728844,
        "Satellite Name": "Starlink Shell 1 877",
        "Satellite Number": 877,
        "Semi-Major Axis(m)": 6931778.249405717,
        "Time(s)": 350
    },
    {
        "Altitude(m)": 559246.2988452247,
        "Argument of Periapsis(deg)": 0.012548825262404526,
        "Eccentricity": 0.0,
        "Inclination(deg)": 53.0,
        "Latitude(deg)": -21.06864558603425,
        "Longitude(deg)": 76.72710521591483,
        "Mean Anomaly(deg)": -26.524976671958242,
        "RAAN(deg)": 194.98132427721097,
        "Satellite Name": "Starlink Shell 1 877",
        "Satellite Number": 877,
        "Semi-Major Axis(m)": 6931778.249405717,
        "Time(s)": 360
    },
    {
        "Altitude(m)": 559086.4152198209,
        "Argument of Periapsis(deg)": 0.012897403741915765,
        "Eccentricity": 0.0,
        "Inclination(deg)": 53.0,
        "Latitude(deg)": -20.586769301740134,
        "Longitude(deg)": 77.11610829224821,
        "Mean Anomaly(deg)": -25.89814546840147,
        "RAAN(deg)": 194.98080550713354,
        "Satellite Name": "Starlink Shell 1 877",
        "Satellite Number": 877,
        "Semi-Major Axis(m)": 6931778.249405717,
        "Time(s)": 370
    }
]